[{"OBJECT_NAME":"YAOGAN-36 05B","OBJECT_ID":"2023-106C","EPOCH":"2026-03-09T23:10:00.235200","MEAN_MOTION":15.17368279,"ECCENTRICITY":0.00161406,"INCLINATION":34.9961,"RA_OF_ASC_NODE":339.5115,"ARG_OF_PERICENTER":302.2426,"MEAN_ANOMALY":57.6723,"EPHEMERIS_TYPE":0,"CLASSIFICATION_TYPE":"U","NORAD_CAT_ID":57454,"ELEMENT_SET_NO":999,"REV_AT_EPOCH":14578,"BSTAR":0.00041497757,"MEAN_MOTION_DOT":8.482e-5,"MEAN_MOTION_DDOT":0},{"OBJECT_NAME":"QMR-KWT-2 (RS95S)","OBJECT_ID":"2025-313AV","EPOCH":"2026-03-09T22:24:23.954112","MEAN_MOTION":15.23495357,"ECCENTRICITY":0.00086588,"INCLINATION":97.4002,"RA_OF_ASC_NODE":145.3491,"ARG_OF_PERICENTER":352.0298,"MEAN_ANOMALY":8.08,"EPHEMERIS_TYPE":0,"CLASSIFICATION_TYPE":"U","NORAD_CAT_ID":67291,"ELEMENT_SET_NO":999,"REV_AT_EPOCH":1086,"BSTAR":0.00073635418,"MEAN_MOTION_DOT":0.00017543,"MEAN_MOTION_DDOT":0}]
